OBJECT_NAME,OBJECT_ID,EPOCH,MEAN_MOTION,ECCENTRICITY,INCLINATION,RA_OF_ASC_NODE,ARG_OF_PERICENTER,MEAN_ANOMALY,EPHEMERIS_TYPE,CLASSIFICATION_TYPE,NORAD_CAT_ID,ELEMENT_SET_NO,REV_AT_EPOCH,BSTAR,MEAN_MOTION_DOT,MEAN_MOTION_DDOT
DUBAISAT-1,2009-041B,2026-07-11T20:20:12.808608,14.75163641,.00101832,98.0079,325.8393,359.6236,0.4964,0,U,35682,999,90873,.73279038E-4,.444E-5,0
OCEANSAT-2,2009-051A,2026-07-11T22:24:33.968736,13.99656511,.00171274,98.2318,177.3146,162.9323,197.2423,0,U,35931,999,88279,-.6665614E-4,-.135E-5,0
WORLDVIEW-2 (WV-2),2009-055A,2026-07-11T22:28:22.966752,14.37906390,.0005177,98.4757,266.0489,137.7380,222.4207,0,U,35946,999,87920,.27035051E-4,.38E-6,0
SMOS,2009-059A,2026-07-11T12:18:46.891872,14.39734682,.0001127,98.4426,19.4914,95.3171,264.8146,0,U,36036,999,87695,.65860627E-4,.163E-5,0
YAOGAN-7,2009-069A,2026-07-11T15:55:23.838240,14.78033529,.00236951,98.0040,78.3759,323.2875,36.6711,0,U,36110,999,89324,.37581748E-4,.219E-5,0
TANDEM-X,2010-030A,2026-07-07T11:29:58.986816,15.19154052,.0001887,97.4457,195.8973,94.3019,265.8431,0,U,36605,999,88972,.21566E-4,.386E-5,0
CARTOSAT-2B,2010-035A,2026-07-11T23:19:28.612416,14.78615162,.00125271,97.9947,243.3610,108.4640,251.7934,0,U,36795,999,86351,.76320107E-4,.507E-5,0
YAOGAN-10,2010-038A,2026-07-12T00:00:31.739904,14.85420880,.0001612,97.8977,216.2064,82.9949,306.4156,0,U,36834,999,86089,.45032306E-4,.334E-5,0
COSMO-SKYMED 4,2010-060A,2026-07-11T22:48:04.944672,14.82150193,.0001539,97.8895,16.1920,84.8642,275.2746,0,U,37216,999,84823,.12791133E-3,.966E-5,0
RESOURCESAT-2,2011-015A,2026-07-11T22:25:10.571232,14.21605363,.00114017,98.7633,260.2036,180.2445,179.8728,0,U,37387,999,78969,.22596533E-4,.5E-7,0
HAIYANG-2A,2011-043A,2026-07-11T22:37:30.943200,13.73480832,.00028671,99.3401,195.0542,38.7593,321.3761,0,U,37781,999,75005,-.1149398E-3,-.15E-5,0
RASAT,2011-044D,2026-07-11T22:13:48.236736,14.68191041,.00218199,98.0577,283.9461,112.3076,359.0500,0,U,37791,999,79681,.71192536E-4,.362E-5,0
SRMSAT,2011-058D,2026-07-11T07:46:27.887232,14.11580564,.00118573,19.9716,273.3792,108.9537,302.7584,0,U,37841,999,76123,.46525383E-4,.351E-5,0
PLEIADES 1A,2011-076F,2026-07-11T23:16:37.271712,14.58545288,.00017149,98.1973,267.7386,81.2380,34.2461,0,U,38012,999,77560,.13619243E-4,.18E-6,0
ZIYUAN 1-02C (ZY 1-02C),2011-079A,2026-07-11T23:51:01.079136,14.38233003,.00054205,98.4066,259.7826,225.7368,258.1908,0,U,38038,999,76277,-.597262E-6,-.45E-6,0
ARIRANG-3 (KOMPSAT-3),2012-025B,2026-07-11T22:35:24.394848,14.62227433,.00064016,98.1183,149.9761,47.3930,312.7811,0,U,38338,999,75496,.51616944E-4,.214E-5,0
EXACTVIEW-1 (ADS-1B),2012-039C,2026-07-11T19:35:22.766208,14.24991670,.00119494,98.9800,310.7657,100.3654,259.8872,0,U,38709,999,72621,.36710963E-4,.4E-6,0
SPOT 6,2012-047A,2026-07-11T23:07:04.819008,14.58537053,.0001146,98.2113,259.9806,82.3802,277.7527,0,U,38755,999,73666,.452173E-6,-.44E-6,0
PLEIADES 1B,2012-068A,2026-07-11T23:33:50.569920,14.58532716,.00016319,98.1943,267.6912,79.8826,280.2557,0,U,39019,999,72446,.5351858E-5,-.21E-6,0
GOKTURK 2,2012-073A,2026-07-11T23:13:52.460256,14.75566533,.00009154,97.6817,29.1569,83.4633,276.6682,0,U,39030,999,72816,.60972506E-4,.368E-5,0
LANDSAT 8,2013-008A,2026-07-11T21:11:53.150784,14.57110491,.00013336,98.2291,262.7240,94.2960,265.8391,0,U,39084,999,70149,.44413263E-4,.155E-5,0
SARAL,2013-009A,2026-07-11T21:36:31.879008,14.32895281,.00015032,98.5554,19.1550,175.1149,185.0050,0,U,39086,999,69914,.36459819E-4,.56E-6,0
GAOFEN-1,2013-018A,2026-07-11T22:24:35.880768,14.76514892,.00167844,97.9090,264.4974,181.5996,178.5164,0,U,39150,999,71189,-.23129784E-4,-.212E-5,0
VNREDSAT 1,2013-021B,2026-07-11T22:51:42.506784,14.64881309,.00016351,97.9074,245.4166,80.3733,279.7655,0,U,39160,999,70391,.4018295E-4,.169E-5,0
ARIRANG-5 (KOMPSAT-5),2013-042A,2026-07-11T23:22:01.632864,15.04523462,.00055959,97.6217,19.3267,66.9000,293.2816,0,U,39227,999,70758,.80694708E-4,.107E-4,0
SKYSAT-A,2013-066C,2026-07-11T22:12:30.308256,15.13105178,.00201835,97.3805,241.5341,225.2191,134.7400,0,U,39418,999,69222,.86825938E-4,.148E-4,0
DUBAISAT-2,2013-066D,2026-07-11T21:59:40.408224,15.10362914,.00097152,97.4572,182.4164,315.3087,44.7359,0,U,39419,999,69012,.22445736E-3,.3624E-4,0
GPM-CORE,2014-009C,2026-07-11T20:59:07.709856,15.45018729,.00110189,64.9697,225.4163,260.9896,98.9997,0,U,39574,999,70162,.81147663E-4,.3596E-4,0
SENTINEL-1A,2014-016A,2026-07-11T23:37:51.046176,14.59199566,.00014361,98.1785,200.1551,87.0298,273.1066,0,U,39634,999,65363,-.15805266E-4,-.12E-5,0
KAZEOSAT 1,2014-024A,2026-07-11T22:20:37.021056,14.42035929,.00012573,98.3201,264.7614,81.6148,278.5184,0,U,39731,999,64212,-.12045053E-4,-.82E-6,0
